satname,norad_id,inclination_deg,eccentricity,mean_motion_rev_per_day,perigee_km,apogee_km,l1,l2
STARLINK-1167,45071,53.0529,0.0001406,15.06407759,546.2140771590857,548.1614784866097,1 45071U 20006AD  25286.49958928  .00004825  00000+0  34252-3 0  9999,2 45071  53.0529 207.3822 0001406  79.3770 280.7377 15.06407759314557
STARLINK-1168,45072,53.0539,0.0001418,15.06395739,546.242601043029,548.2066335977006,1 45072U 20006AE  25286.50327890 -.00000285  00000+0 -25262-6 0  9992,2 45072  53.0539 207.3655 0001418  81.6553 278.4596 15.06395739314552
STARLINK-1172,45074,53.053,0.0001507,15.06392038,546.192306723884,548.2796141341578,1 45074U 20006AG  25286.51433977  .00015064  00000+0  10283-2 0  9991,2 45074  53.0530 207.3160 0001507  77.7856 282.3302 15.06392038314555
STARLINK-1153,45080,53.0533,0.0001477,15.06406638,546.168342521898,548.2140844761661,1 45080U 20006AN  25286.49221535  .00002904  00000+0  21375-3 0  9994,2 45080  53.0533 207.4147 0001477 103.7554 256.3600 15.06406638314556
STARLINK-1151,45081,53.0536,0.0001533,15.06391611,546.1756092589012,548.2989290098185,1 45081U 20006AP  25286.07940929  .00000767  00000+0  70368-4 0  9996,2 45081  53.0536 209.3418 0001533  88.6909 271.4256 15.06391611314492
STARLINK-1190,45083,53.0438,0.0006886,15.81320089,322.08960465916607,331.3235152099078,1 45083U 20006AR  25286.66667824  .00292826  00000+0  14064-2 0  9991,2 45083  53.0438 167.5235 0006886 127.5654 126.6378 15.81320089  5940
STARLINK-1173,45084,53.0383,5.3e-05,15.98174234,279.1315022378958,279.83721010165027,1 45084U 20006AS  25286.66667824  .00459998  99962-4  97790-3 0  9995,2 45084  53.0383 129.3283 0000530  10.6539  57.6355 15.98174234  5869
STARLINK-1185,45087,53.0533,0.0001446,15.06390507,546.2392431602348,548.242062377416,1 45087U 20006AV  25286.05543918 -.00002415  00000+0 -14330-3 0  9997,2 45087  53.0533 189.3733 0001446  78.5431 281.5721 15.06390507314776
STARLINK-1183,45088,53.0544,0.0001586,15.06395147,546.1280690839776,548.3247943645201,1 45088U 20006AW  25286.01120533 -.00003389  00000+0 -20873-3 0  9998,2 45088  53.0544 189.5746 0001586  80.9830 279.1339 15.06395147314762
STARLINK-1176,45090,53.0439,0.0002131,15.94352164,288.69911831070385,291.5411294969117,1 45090U 20006AY  25286.66667824  .00410952  77817-4  10771-2 0  9997,2 45090  53.0439 127.5498 0002131 308.8982  41.3997 15.94352164  6015
STARLINK-1142,45093,53.0354,0.0003786,15.55759927,397.37833293626227,402.5106962591144,1 45093U 20006BB  25286.56616866  .00117905  00000+0  16615-2 0  9999,2 45093  53.0354 127.0186 0003786 171.3737 188.7339 15.55759927315699
STARLINK-1147,45095,53.029,0.0004644,16.21505529,212.40530615446733,218.52944589892104,1 45095U 20006BD  25286.86799046  .01911718  11856-4  85448-3 0  9998,2 45095  53.0290 120.6542 0004644 272.5075  87.5432 16.21505529315802
STARLINK-1152,45096,53.0513,0.0009085,15.22497076,492.064274048018,504.55878102254974,1 45096U 20006BE  25286.41651025  .00005117  00000+0  23194-3 0  9994,2 45096  53.0513 172.0999 0009085 110.1669 250.0305 15.22497076315047
STARLINK-1184,45098,53.0536,0.0001356,15.06397048,546.2815269165931,548.1596838991791,1 45098U 20006BG  25286.42402552  .00001159  00000+0  96681-4 0  9990,2 45098  53.0536 187.7196 0001356 105.3676 254.7463 15.06397048314824
STARLINK-1193,45100,53.0531,8.98e-05,15.0644071,546.464905365041,547.7086755578075,1 45100U 20006BJ  25286.42032533  .00022085  00000+0  14953-2 0  9993,2 45100  53.0531 187.7358 0000898  66.7270 293.3814 15.06440710314827
STARLINK-1143,45179,53.0545,0.0006772,15.37722096,448.22110910824904,457.47299390761145,1 45179U 20012B   25286.40123890  .00093258  00000+0  24590-2 0  9999,2 45179  53.0545 315.6984 0006772 332.8889  27.1759 15.37722096313098
STARLINK-1202,45183,53.0562,0.0001521,15.06417299,546.105202050604,548.2118769537201,1 45183U 20012F   25286.54933814  .00006841  00000+0  47750-3 0  9990,2 45183  53.0562 347.1613 0001521 102.2015 257.9145 15.06417299312664
STARLINK-1216,45185,53.0554,0.0001301,15.06425556,546.2322559289332,548.034211243712,1 45185U 20012H   25286.47561391  .00007639  00000+0  53079-3 0  9998,2 45185  53.0554 347.4870 0001301  91.2426 268.8712 15.06425556312592
STARLINK-1225,45187,53.0553,0.0001158,15.06431806,546.3121347693868,547.9160229192485,1 45187U 20012K   25286.56039225  .00011380  00000+0  78098-3 0  9992,2 45187  53.0553 347.1089 0001158  91.0202 269.0919 15.06431806312656
STARLINK-1230,45189,53.0547,0.0001493,15.06422454,546.1087962517986,548.1766847823164,1 45189U 20012M   25286.49773941  .00010870  00000+0  74706-3 0  9991,2 45189  53.0547 347.3916 0001493  84.1919 275.9240 15.06422454309874
STARLINK-1234,45190,53.0543,0.0001656,15.14419571,521.598470162824,523.8840410410803,1 45190U 20012N   25286.66667824  .02026586  00000+0  99567-1 0  9997,2 45190  53.0543 306.5049 0001656  84.2276  78.2292 15.14419571  5806
STARLINK-1269,45197,53.0543,0.0001392,15.06427842,546.162230891251,548.0902241737958,1 45197U 20012V   25286.57514913  .00014923  00000+0  10178-2 0  9996,2 45197  53.0543 347.0447 0001392  95.1040 265.0108 15.06427842312637
STARLINK-1154,45198,53.0551,0.000168,15.0641395,546.0053521523923,548.3322549023769,1 45198U 20012W   25286.43323899  .00004584  00000+0  32630-3 0  9993,2 45198  53.0551 327.6815 0001680  90.3299 269.7883 15.06413950312864
STARLINK-1199,45201,53.0547,0.0001364,15.06420851,546.2030445367709,548.0922621902082,1 45201U 20012Z   25286.51064172  .00007956  00000+0  55206-3 0  9993,2 45201  53.0547 327.3326 0001364  84.2358 275.8786 15.06420851312931
STARLINK-1209,45206,53.0546,0.0003407,15.06810759,543.5938893197153,548.3119641958083,1 45206U 20012AE  25284.79469304  .00166738  00000+0  10830-1 0  9998,2 45206  53.0546 315.0358 0003407 188.8666 171.2264 15.06810759312005
STARLINK-1210,45207,53.0268,0.0013515,15.51924282,401.93246013317093,420.283789705828,1 45207U 20012AF  25286.66667824 -.00021071  00000+0 -33694-3 0  9991,2 45207  53.0268 272.5654 0013515 352.7112 233.0738 15.51924282  5810
STARLINK-1231,45212,53.0521,0.0004009,15.10777214,531.0574219300688,536.5994358109383,1 45212U 20012AL  25286.52108400  .00040840  00000+0  24358-2 0  9991,2 45212  53.0521 326.2700 0004009 327.9635  32.1112 15.10777214312900
STARLINK-1271,45217,53.0565,0.000152,15.06424179,546.084812059913,548.190095493861,1 45217U 20012AR  25286.56223726 -.00000672  00000+0 -26198-4 0  9996,2 45217  53.0565 327.1008 0001520  90.1996 269.9167 15.06424179312946
STARLINK-1191,45222,53.0544,0.0001322,15.06414857,546.2504986875747,548.081548807053,1 45222U 20012AW  25286.37241041 -.00001067  00000+0 -52754-4 0  9997,2 45222  53.0544 307.9510 0001322  98.8983 261.2155 15.06414857313196
STARLINK-1212,45223,53.054,0.0001298,15.0642233,546.2442191901355,548.0420219094303,1 45223U 20012AX  25286.32458310  .00007996  00000+0  55476-3 0  9990,2 45223  53.0540 308.8218 0001298  91.8410 268.2728 15.06422330313185
STARLINK-1215,45225,53.0545,0.0001391,15.06410527,546.2159828907816,548.1426058838797,1 45225U 20012AZ  25286.34661608  .00001161  00000+0  96771-4 0  9992,2 45225  53.0545 308.0680 0001391  91.4057 268.7091 15.06410527313143
STARLINK-1217,45226,53.0353,0.000189,16.11217794,242.25317622189596,244.75615677183214,1 45226U 20012BA  25286.85585896  .00941948  53321-3  90498-3 0  9996,2 45226  53.0353 241.7926 0001890 170.8219 189.2850 16.11217794314074
STARLINK-1221,45227,53.0679,0.0001677,15.36010127,456.77537733765894,459.0681914539455,1 45227U 20012BB  25286.17039249  .00027593  00000+0  78359-3 0  9993,2 45227  53.0679 245.5298 0001677 276.6161  83.4650 15.36010127313994
STARLINK-1222,45228,53.0548,0.0001442,15.0640802,546.1883461848083,548.1856096200354,1 45228U 20012BC  25286.37979651  .00004635  00000+0  32977-3 0  9994,2 45228  53.0548 307.9186 0001442  93.8784 266.2370 15.06408020313089
STARLINK-1226,45229,53.0537,0.0001443,15.06403984,546.2000215440339,548.1986736139461,1 45229U 20012BD  25286.34293489  .00000793  00000+0  72120-4 0  9996,2 45229  53.0537 308.0825 0001443  85.8553 274.2601 15.06403984313086
STARLINK-1227,45230,53.0544,0.0001482,15.06410857,546.1519512718833,548.2046147217634,1 45230U 20012BE  25286.33925062  .00005689  00000+0  40037-3 0  9996,2 45230  53.0544 308.0996 0001482  84.2173 275.8985 15.06410857313202
STARLINK-1246,45235,53.0551,0.0001387,15.06431688,546.1539081098244,548.0749728594146,1 45235U 20012BK  25286.55302013  .00010511  00000+0  72288-3 0  9993,2 45235  53.0551 347.1413 0001387  91.2920 268.8228 15.06431688312683
STARLINK-1270,45237,53.0552,0.0001398,15.06403742,546.2319271458855,548.168251396045,1 45237U 20012BM  25286.35766946  .00002240  00000+0  16922-3 0  9995,2 45237  53.0552 308.0174 0001398  92.1919 267.9230 15.06403742313196
STARLINK-1279,45360,53.0546,0.000181,15.108693,532.2965594397965,534.7985892557108,1 45360U 20019A   25286.66667824  .02144151  00000+0  11562+0 0  9999,2 45360  53.0546  76.5911 0001810  85.2499  36.4543 15.10869300  5754
STARLINK-1301,45361,53.0535,0.000155,15.12554898,527.341163455174,529.4821935455084,1 45361U 20019B   25286.66667824  .02119054  00000+0  10920+0 0  9991,2 45361  53.0535  86.5593 0001550  99.1124 104.1713 15.12554898  5803
STARLINK-1306,45362,53.0487,0.0006672,15.63327509,373.54537688273103,382.5608369614083,1 45362U 20019C   25286.66667824  .00170498  00000+0  17871-2 0  9994,2 45362  53.0487  81.5791 0006672 187.3904 223.2620 15.63327509  5994
STARLINK-1262,45366,53.053,0.0001514,15.06398263,546.1683830205448,548.2653801758925,1 45366U 20019G   25286.60096810  .00009346  00000+0  64553-3 0  9996,2 45366  53.0530 106.9221 0001514  66.5541 293.5607 15.06398263307567
STARLINK-1273,45367,53.0531,0.0001327,15.06404432,546.278982578785,548.116966481025,1 45367U 20019H   25286.55672093  .00000411  00000+0  46454-4 0  9999,2 45367  53.0531 107.1232 0001327  91.0405 269.0736 15.06404432307554
